From: horizons@ssd.jpl.nasa.gov (Horizons Ephemeris System)
Subject: [Horizons] SMALL BODY #C(500@10)_T(323P/SOHO) (1/1)
Date: March 5, 2021 at 3:22:06 PM PST

Automated mail xmit by MAIL_REQUEST, PID= 24865 Fri Mar  5 15:22:06 2021
++++++++++++++++++++++++++++++++ (part 1 of 1)  +++++++++++++++++++++++++++++++
*******************************************************************************
JPL/HORIZONS                      323P/SOHO                2021-Mar-05 15:22:06
Rec #:90001238 (+COV) Soln.date: 2021-Feb-19_11:55:03     # obs: 66 (2016-2021)

IAU76/J2000 helio. ecliptic osc. elements (au, days, deg., period=Julian yrs):

 EPOCH=  2459256.5 ! 2021-Feb-11.0000000 (TDB)    RMSW= n.a.
  EC= .9848146550454432   QR= .03920674175283825  TP= 2459232.1313417382
  OM= 324.2293658272395   W= 353.1740221449773    IN= 5.369940921166516
  A= 2.581880218735045    MA= 5.789373331779234   ADIST= 5.124553695717252
  PER= 4.1487030400684    N= .237574556           ANGMOM= .00479868
  DAN= .03935             DDN= 3.5107             L= 317.433075
  B= -.6373181            MOID= .0221702          TP= 2021-Jan-17.6313417382

Comet physical (GM= km^3/s^2; RAD= km):
  GM= n.a.                RAD= n.a.
  M1=  24.3     M2=  n.a.     k1=  4.5    k2= n.a.     PHCOF= n.a.

COMET comments 
1: soln ref.= JPL#K212/1, data arc: 2016-11-23 to 2021-02-17
2: k1=4.5;
*******************************************************************************


*******************************************************************************
Ephemeris / MAIL_REQUEST Fri Mar  5 15:22:06 2021 Pasadena, USA  / Horizons
*******************************************************************************
Target body name: 323P/SOHO                       {source: JPL#K212/1}
Center body name: Sun (10)                        {source: DE431}
Center-site name: BODY CENTER
*******************************************************************************
Start time      : A.D. 1990-Jan-01 00:00:00.0000 TDB
Stop  time      : A.D. 2020-Dec-31 00:00:00.0000 TDB
Step-size       : 20160 minutes
*******************************************************************************
Center geodetic : 0.00000000,0.00000000,0.0000000 {E-lon(deg),Lat(deg),Alt(km)}
Center cylindric: 0.00000000,0.00000000,0.0000000 {E-lon(deg),Dxy(km),Dz(km)}
Center radii    : 696000.0 x 696000.0 x 696000.0 k{Equator, meridian, pole}    
Small perturbers: Yes                             {source: SB431-N16}
Output units    : AU-D
Output type     : GEOMETRIC cartesian states
Output format   : 3 (position, velocity, LT, range, range-rate)
Reference frame : Ecliptic of J2000.0
*******************************************************************************
Initial IAU76/J2000 heliocentric ecliptic osculating elements (au, days, deg.):
 EPOCH=  2459256.5 ! 2021-Feb-11.0000000 (TDB)    RMSW= n.a.                  
  EC= .9848146550454432   QR= .03920674175283825  TP= 2459232.1313417382      
  OM= 324.2293658272395   W= 353.1740221449773    IN= 5.369940921166516       
 Equivalent ICRF heliocentric equatorial cartesian coordinates (au, au/d):
  X=-3.582865589506032E-01  Y= 6.940398879825677E-01  Z= 3.437445990748497E-01
 VX=-1.491655287657844E-02 VY= 1.706522933353224E-02 VZ= 8.073842753377729E-03
Comet physical (GM= km^3/s^2; RAD= km):                                        
  GM= n.a.                RAD= n.a.                                           
  M1=  24.3     M2=  n.a.     k1=  4.5    k2= n.a.     PHCOF= n.a.            
*******************************************************************************
           JDTDB,            Calendar Date (TDB),                      X,                      Y,                      Z,                     VX,                     VY,                     VZ,                     LT,                     RG,                     RR,
**************************************************************************************************************************************************************************************************************************************************************************
$$SOE
2450972.500000000, A.D. 1998-Jun-08 00:00:00.0000, -3.767556130505406E+00,  3.173071626901375E+00,  3.850595164066804E-02,  1.181329705844180E-03, -2.451594363316746E-03, -1.377630905077430E-04,  2.844954053536635E-02,  4.925885245746917E+00, -2.483840889265141E-03,
2450986.500000000, A.D. 1998-Jun-22 00:00:00.0000, -3.750099147649401E+00,  3.137976885166194E+00,  3.656804083070516E-02,  1.312906184316760E-03, -2.562141182360396E-03, -1.390748877246930E-04,  2.824191836575562E-02,  4.889936581454640E+00, -2.652090400289858E-03,
2451000.500000000, A.D. 1998-Jul-06 00:00:00.0000, -3.730783667966425E+00,  3.101325764268763E+00,  3.461203985879914E-02,  1.446859769255545E-03, -2.673955190832647E-03, -1.403471015035184E-04,  2.802059027340123E-02,  4.851614810203447E+00, -2.822891997417813E-03,
2451014.500000000, A.D. 1998-Jul-20 00:00:00.0000, -3.709575071635963E+00,  3.063099608206569E+00,  3.263851216219404E-02,  1.583385952671952E-03, -2.787168952921966E-03, -1.415785540669577E-04,  2.778534082880377E-02,  4.810882631531802E+00, -2.996474286316155E-03,
2451028.500000000, A.D. 1998-Aug-03 00:00:00.0000, -3.686435850428765E+00,  3.023277853587047E+00,  3.064803571690403E-02,  1.722700731459323E-03, -2.901921551125845E-03, -1.427681246629019E-04,  2.753593527902889E-02,  4.767699399229114E+00, -3.173085211581760E-03,
2451042.500000000, A.D. 1998-Aug-17 00:00:00.0000, -3.661325353085616E+00,  2.981837939562934E+00,  2.864120747816280E-02,  1.865037143147745E-03, -3.018359965354880E-03, -1.439142255722908E-04,  2.727211813342669E-02,  4.722020876460654E+00, -3.352990240413194E-03,
2451056.500000000, A.D. 1998-Aug-31 00:00:00.0000, -3.634199535251863E+00,  2.938755164774654E+00,  2.661864880090112E-02,  2.010647834487703E-03, -3.136643927080849E-03, -1.450150527417016E-04,  2.699361157987869E-02,  4.673798961549218E+00, -3.536477329717938E-03,
2451070.500000000, A.D. 1998-Sep-14 00:00:00.0000, -3.605010617874196E+00,  2.894002495282666E+00,  2.458100429260431E-02,  2.159815438918038E-03, -3.256944695106003E-03, -1.460689845550372E-04,  2.670011332106659E-02,  4.622981313336667E+00, -3.723864108482330E-03,
2451084.500000000, A.D. 1998-Sep-28 00:00:00.0000, -3.573706699346938E+00,  2.847550499053382E+00,  2.252895365990271E-02,  2.312841734632017E-03, -3.379435734800460E-03, -1.470722921226496E-04,  2.639129466769673E-02,  4.569511021035989E+00, -3.915483564263514E-03,
2451098.500000000, A.D. 1998-Oct-12 00:00:00.0000, -3.540231537670743E+00,  2.799367135123359E+00,  2.046323535445200E-02,  2.470050503866675E-03, -3.504318666381867E-03, -1.480209005601230E-04,  2.606679887818526E-02,  4.513326316756688E+00, -4.111702297421763E-03,
2451112.500000000, A.D. 1998-Oct-26 00:00:00.0000, -3.504524069739139E+00,  2.749417376084694E+00,  1.838464183619738E-02,  2.631806790171042E-03, -3.631816639667189E-03, -1.489108977647095E-04,  2.572623773676626E-02,  4.454359983022575E+00, -4.312931097992796E-03,
2451126.500000000, A.D. 1998-Nov-09 00:00:00.0000, -3.466517837975259E+00,  2.697662931906911E+00,  1.629402539227876E-02,  2.798516666974479E-03, -3.762173480966299E-03, -1.497376174414788E-04,  2.536918809859893E-02,  4.392538754575621E+00, -4.519624032185206E-03,
2451140.500000000, A.D. 1998-Nov-23 00:00:00.0000, -3.426140382047627E+00,  2.644061920617510E+00,  1.419230889695064E-02,  2.970632995960769E-03, -3.895659613380707E-03, -1.504956871890677E-04,  2.499518810531597E-02,  4.327782663118475E+00, -4.732286342136808E-03,
2451154.500000000, A.D. 1998-Dec-07 00:00:00.0000, -3.383312499472551E+00,  2.588568454360928E+00,  1.208049233200452E-02,  3.148669336702400E-03, -4.032576478548306E-03, -1.511795213077246E-04,  2.460373252960170E-02,  4.260004231253146E+00, -4.951487783518510E-03,
2451168.500000000, A.D. 1998-Dec-21 00:00:00.0000, -3.337947317855658E+00,  2.531132276500212E+00,  9.959663793462841E-03,  3.333204992620702E-03, -4.173245825171912E-03, -1.517815293400317E-04,  2.419426746624451E-02,  4.189107553265230E+00, -5.177859791864052E-03,
2451182.500000000, A.D. 1999-Jan-04 00:00:00.0000, -3.289949451288722E+00,  2.471698361424894E+00,  7.831036501656325E-03,  3.524881539830072E-03, -4.318033100893165E-03, -1.522920287121811E-04,  2.376618530610970E-02,  4.114987424894292E+00, -5.412106461755625E-03,
2451196.500000000, A.D. 1999-Jan-18 00:00:00.0000, -3.239213887623287E+00,  2.410206197561123E+00,  5.695961345243569E-03,  3.724436004633510E-03, -4.467354628585159E-03, -1.527008092411520E-04,  2.331881741950548E-02,  4.037528076497953E+00, -5.655034463563012E-03,
2451210.500000000, A.D. 1999-Feb-01 00:00:00.0000, -3.185624556313563E+00,  2.346589103846275E+00,  3.555945085148839E-03,  3.932713256596354E-03, -4.621677079948148E-03, -1.529956679800553E-04,  2.285142555248125E-02,  3.956601683367116E+00, -5.907561820768820E-03,
2451224.500000000, A.D. 1999-Feb-15 00:00:00.0000, -3.129052702167708E+00,  2.280773444032366E+00,  1.412682500271378E-03,  4.150684378225516E-03, -4.781529705013096E-03, -1.531618966139133E-04,  2.236319204408932E-02,  3.872066671897340E+00, -6.170738919637635E-03,
2451238.500000000, A.D. 1999-Mar-01 00:00:00.0000, -3.069354927614668E+00,  2.212677645197740E+00, -7.319075314882419E-04,  4.379476444432375E-03, -4.947519440029588E-03, -1.531822147829824E-04,  2.185320793052298E-02,  3.783765659884197E+00, -6.445780036693746E-03,
2451252.500000000, A.D. 1999-Mar-15 00:00:00.0000, -3.006370732173366E+00,  2.142211064312246E+00, -2.875640653970201E-03,  4.620409860572831E-03, -5.120334460389469E-03, -1.530353463476282E-04,  2.132045831396202E-02,  3.691522923217408E+00, -6.734093909720922E-03,
2451266.500000000, A.D. 1999-Mar-29 00:00:00.0000, -2.939919671552933E+00,  2.069272741325186E+00, -5.015988028921570E-03,  4.875020331188163E-03, -5.300769867783110E-03, -1.526935159802047E-04,  2.076380572434189E-02,  3.595141515060465E+00, -7.037314317527862E-03,
